ORBCOMM FM06            
1 25118U 97084G   26166.96016360  .00001025  00000+0  31508-3 0  9994
2 25118  45.0145  58.6190 0001278 328.0927  46.1542 14.47560021494218
ORBCOMM FM04            
1 25159U 98007C   26166.93130872  .00000722  00000+0  29253-3 0  9994
2 25159 107.9627 166.8345 0041317 326.9275  32.9283 14.35739352476410
ORBCOMM FM19            
1 25415U 98046C   26166.54570119  .00000602  00000+0  23666-3 0  9990
2 25415  44.9934 251.3646 0004563 275.0245  99.3269 14.39493244456547
ORBCOMM FM20            
1 25416U 98046D   26166.97089841  .00000475  00000+0  20190-3 0  9992
2 25416  44.9939 257.2526 0002228 246.5749 113.4865 14.38065143456613
ORBCOMM FM27            
1 25481U 98053G   26166.79915525  .00000745  00000+0  28431-3 0  9995
2 25481  45.0064 341.9466 0000880 188.0856 171.9978 14.39139020450032
ORBCOMM FM32            
1 25982U 99065C   26166.76107996  .00000375  00000+0  17245-3 0  9997
2 25982  45.0137 179.9904 0004569  27.0401 333.0684 14.37128538386887
ORBCOMM FM109           
1 40086U 14040A   26166.52309099  .00000336  00000+0  10727-3 0  9996
2 40086  47.0031  99.3543 0001877 242.6178 117.4517 14.58843120634107
ORBCOMM FM110           
1 41182U 15081D   26166.87117127  .00000598  00000+0  16267-3 0  9992
2 41182  47.0033   7.6655 0002539  67.8985 292.2171 14.58878924557430
ORBCOMM FM118           
1 41183U 15081E   26165.94661219  .00002342  00000+0  53124-3 0  9998
2 41183  47.0047  12.3690 0002883  17.4423 342.6561 14.58877028557402
ORBCOMM FM112           
1 41184U 15081F   26166.77303780  .00000520  00000+0  14621-3 0  9992
2 41184  46.9992 276.9346 0003652 211.8493 148.2172 14.58902578558743
ORBCOMM FM113           
1 41185U 15081G   26165.58533963  .00000343  00000+0  10887-3 0  9992
2 41185  47.0013 282.9257 0002139 214.6325 145.4422 14.58856169558552
ORBCOMM FM108           
1 41187U 15081J   26166.36959394  .00000282  00000+0  95815-4 0  9998
2 41187  47.0033 190.7913 0002858 215.3797 144.6900 14.58868106559816
ORBCOMM FM117           
1 41188U 15081K   26166.74602042  .00000224  00000+0  83708-4 0  9990
2 41188  46.9995 187.6455 0003413 219.0322 141.0318 14.58864211559919
ORBCOMM FM116           
1 41189U 15081L   26166.04162955  .00000560  00000+0  15455-3 0  9994
2 41189  47.0026 280.7669 0000652  46.7508 313.3432 14.58880501558620
